IRIDIUM 166             
1 43570U 18061B   25056.56674035  .00000013  00000+0 -24012-5 0  9997
2 43570  86.3918 255.8748 0002028  78.9521 281.1903 14.34217782345082
IRIDIUM 158             
1 43571U 18061C   25056.25595380 -.00000005  00000+0 -89589-5 0  9991
2 43571  86.3918 256.0147 0002148  90.6343 269.5099 14.34217684345015
IRIDIUM 165             
1 43572U 18061D   25056.28132354  .00000107  00000+0  30994-4 0  9999
2 43572  86.3918 256.0413 0001872  85.9967 274.1443 14.34218167345038
IRIDIUM 155             
1 43573U 18061E   25056.03396352 -.00000009  00000+0 -10307-4 0  9992
2 43573  86.3915 256.0375 0002228  85.9056 274.2394 14.34217715344974
IRIDIUM 154             
1 43574U 18061F   25056.57308276  .00000000  00000+0 -69507-5 0  9997
2 43574  86.3919 255.9219 0001895  88.8251 271.3161 14.34217705345095
IRIDIUM 163             
1 43575U 18061G   25056.55405548  .00000035  00000+0  55570-5 0  9998
2 43575  86.3916 255.8602 0002101  92.7443 267.3994 14.34217658345069
IRIDIUM 156             
1 43576U 18061H   25055.83100052 -.00000002  00000+0 -79560-5 0  9992
2 43576  86.3917 256.1696 0002237  81.7141 278.4308 14.34217541344951
IRIDIUM 164             
1 43577U 18061J   25055.95150847 -.00000014  00000+0 -12205-4 0  9998
2 43577  86.3917 256.1518 0001741  85.9493 274.1901 14.34217590345014
